SCD 1                   
1 22490U 93009B   26061.62742050  .00000514  00000+0  89647-4 0  9996
2 22490  24.9680 145.4917 0042219  90.1877  56.7842 14.46062608745677
TECHSAT 1B (GO-32)      
1 25397U 98043D   26061.50493037  .00000111  00000+0  68119-4 0  9997
2 25397  99.0018  51.6019 0001855 130.8341 229.2998 14.24403781436149
SCD 2                   
1 25504U 98060A   26061.58726453  .00000534  00000+0  98124-4 0  9993
2 25504  24.9966   9.5387 0016982  76.9816  83.7850 14.45478214444888
DLR-TUBSAT              
1 25757U 99029B   26061.85676679  .00000175  00000+0  54754-4 0  9995
2 25757  98.6656  53.8863 0013402 317.1280  42.8869 14.52394274417812
TERRA                   
1 25994U 99068A   26061.80781814  .00000548  00000+0  12082-3 0  9995
2 25994  97.9608 115.5050 0002235 168.5808 303.7174 14.61006057394073
MAROC-TUBSAT            
1 27004U 01056D   26061.46934165 -.00000009  00000+0  42772-4 0  9993
2 27004  99.7999 236.3360 0020465  57.5093 357.3632 13.70257625211579
AQUA                    
1 27424U 02022A   26061.90159334  .00001285  00000+0  26639-3 0  9998
2 27424  98.4162  29.1435 0000685  56.8605 326.0417 14.61956893267745
IRS-P6 (RESOURCESAT-1)  
1 28051U 03046A   26061.84811624  .00000148  00000+0  63652-4 0  9996
2 28051  98.2063 103.5016 0063133 302.0217 162.3236 14.36111670165266
SHIYAN-1 (SY-1)         
1 28220U 04012A   26061.74276271  .00016921  00000+0  57052-3 0  9992
2 28220  97.8787 133.0999 0006450  46.1755 314.0017 15.30787206194794
AURA                    
1 28376U 04026A   26061.84898817  .00001247  00000+0  26327-3 0  9992
2 28376  98.3299  17.5081 0001020  77.7244 282.4070 14.61129129150683
IRS-P5 (CARTOSAT-1)     
1 28649U 05017A   26061.63382803  .00002061  00000+0  21518-3 0  9998
2 28649  97.5422  89.4955 0002526  77.2017 282.9484 14.90735256127941
SINAH 1                 
1 28893U 05043D   26061.78364440  .00000605  00000+0  12460-3 0  9999
2 28893  98.2672 195.5884 0013371 247.5908 112.3878 14.64063663 84951
RESURS-DK 1             
1 29228U 06021A   26061.72457365  .00003215  00000+0  18935-3 0  9995
2 29228  69.9303 255.0413 0002475 165.5368 194.5869 15.12688957 86476
ARIRANG-2 (KOMPSAT-2)   
1 29268U 06031A   26061.86308602  .00000842  00000+0  16689-3 0  9991
2 29268  97.8294 251.4460 0015597  53.9245  58.2422 14.64582629 45914
LAPAN-TUBSAT            
1 29709U 07001A   26061.85614374  .00000348  00000+0  46543-4 0  9998
2 29709  98.1321  58.7048 0012309 165.7175 194.4390 14.85815441 35360
HAIYANG-1B              
1 31113U 07010A   26061.58553703  .00000133  00000+0  66431-4 0  9998
2 31113  98.3418  47.6107 0013955 152.7731 207.4187 14.30996710985380
COSMO-SKYMED 1          
1 31598U 07023A   26061.84436346  .00003878  00000+0  34689-3 0  9999
2 31598  97.8863 252.8222 0000835  85.9902 274.1414 14.96469537 13888
