[{"OBJECT_NAME":"SCD 1","OBJECT_ID":"1993-009B","EPOCH":"2026-03-02T15:03:29.131200","MEAN_MOTION":14.46062608,"ECCENTRICITY":0.0042219,"INCLINATION":24.968,"RA_OF_ASC_NODE":145.4917,"ARG_OF_PERICENTER":90.1877,"MEAN_ANOMALY":56.7842,"EPHEMERIS_TYPE":0,"CLASSIFICATION_TYPE":"U","NORAD_CAT_ID":22490,"ELEMENT_SET_NO":999,"REV_AT_EPOCH":74567,"BSTAR":8.9647e-5,"MEAN_MOTION_DOT":5.14e-6,"MEAN_MOTION_DDOT":0},{"OBJECT_NAME":"TECHSAT 1B (GO-32)","OBJECT_ID":"1998-043D","EPOCH":"2026-03-02T12:07:05.983968","MEAN_MOTION":14.24403781,"ECCENTRICITY":0.00018555,"INCLINATION":99.0018,"RA_OF_ASC_NODE":51.6019,"ARG_OF_PERICENTER":130.8341,"MEAN_ANOMALY":229.2998,"EPHEMERIS_TYPE":0,"CLASSIFICATION_TYPE":"U","NORAD_CAT_ID":25397,"ELEMENT_SET_NO":999,"REV_AT_EPOCH":43614,"BSTAR":6.8118618e-5,"MEAN_MOTION_DOT":1.11e-6,"MEAN_MOTION_DDOT":0},{"OBJECT_NAME":"SCD 2","OBJECT_ID":"1998-060A","EPOCH":"2026-03-02T14:05:39.655392","MEAN_MOTION":14.45478214,"ECCENTRICITY":0.0016982,"INCLINATION":24.9966,"RA_OF_ASC_NODE":9.5387,"ARG_OF_PERICENTER":76.9816,"MEAN_ANOMALY":83.785,"EPHEMERIS_TYPE":0,"CLASSIFICATION_TYPE":"U","NORAD_CAT_ID":25504,"ELEMENT_SET_NO":999,"REV_AT_EPOCH":44488,"BSTAR":9.8124e-5,"MEAN_MOTION_DOT":5.34e-6,"MEAN_MOTION_DDOT":0},{"OBJECT_NAME":"DLR-TUBSAT","OBJECT_ID":"1999-029B","EPOCH":"2026-03-02T20:33:44.650656","MEAN_MOTION":14.52394274,"ECCENTRICITY":0.0013402,"INCLINATION":98.6656,"RA_OF_ASC_NODE":53.8863,"ARG_OF_PERICENTER":317.128,"MEAN_ANOMALY":42.8869,"EPHEMERIS_TYPE":0,"CLASSIFICATION_TYPE":"U","NORAD_CAT_ID":25757,"ELEMENT_SET_NO":999,"REV_AT_EPOCH":41781,"BSTAR":5.4754e-5,"MEAN_MOTION_DOT":1.75e-6,"MEAN_MOTION_DDOT":0},{"OBJECT_NAME":"TERRA","OBJECT_ID":"1999-068A","EPOCH":"2026-03-02T19:23:15.487296","MEAN_MOTION":14.61006057,"ECCENTRICITY":0.0002235,"INCLINATION":97.9608,"RA_OF_ASC_NODE":115.505,"ARG_OF_PERICENTER":168.5808,"MEAN_ANOMALY":303.7174,"EPHEMERIS_TYPE":0,"CLASSIFICATION_TYPE":"U","NORAD_CAT_ID":25994,"ELEMENT_SET_NO":999,"REV_AT_EPOCH":39407,"BSTAR":0.00012082,"MEAN_MOTION_DOT":5.48e-6,"MEAN_MOTION_DDOT":0},{"OBJECT_NAME":"MAROC-TUBSAT","OBJECT_ID":"2001-056D","EPOCH":"2026-03-02T11:15:51.118560","MEAN_MOTION":13.70257625,"ECCENTRICITY":0.00204652,"INCLINATION":99.7999,"RA_OF_ASC_NODE":236.336,"ARG_OF_PERICENTER":57.5093,"MEAN_ANOMALY":357.3632,"EPHEMERIS_TYPE":0,"CLASSIFICATION_TYPE":"U","NORAD_CAT_ID":27004,"ELEMENT_SET_NO":999,"REV_AT_EPOCH":21157,"BSTAR":4.2771797e-5,"MEAN_MOTION_DOT":-9.0e-8,"MEAN_MOTION_DDOT":0},{"OBJECT_NAME":"AQUA","OBJECT_ID":"2002-022A","EPOCH":"2026-03-02T21:38:17.664576","MEAN_MOTION":14.61956893,"ECCENTRICITY":6.85e-5,"INCLINATION":98.4162,"RA_OF_ASC_NODE":29.1435,"ARG_OF_PERICENTER":56.8605,"MEAN_ANOMALY":326.0417,"EPHEMERIS_TYPE":0,"CLASSIFICATION_TYPE":"U","NORAD_CAT_ID":27424,"ELEMENT_SET_NO":999,"REV_AT_EPOCH":26774,"BSTAR":0.00026639,"MEAN_MOTION_DOT":1.285e-5,"MEAN_MOTION_DDOT":0},{"OBJECT_NAME":"IRS-P6 (RESOURCESAT-1)","OBJECT_ID":"2003-046A","EPOCH":"2026-03-02T20:21:17.243136","MEAN_MOTION":14.3611167,"ECCENTRICITY":0.0063133,"INCLINATION":98.2063,"RA_OF_ASC_NODE":103.5016,"ARG_OF_PERICENTER":302.0217,"MEAN_ANOMALY":162.3236,"EPHEMERIS_TYPE":0,"CLASSIFICATION_TYPE":"U","NORAD_CAT_ID":28051,"ELEMENT_SET_NO":999,"REV_AT_EPOCH":16526,"BSTAR":6.3652e-5,"MEAN_MOTION_DOT":1.48e-6,"MEAN_MOTION_DDOT":0},{"OBJECT_NAME":"SHIYAN-1 (SY-1)","OBJECT_ID":"2004-012A","EPOCH":"2026-03-02T17:49:34.698144","MEAN_MOTION":15.30787206,"ECCENTRICITY":0.000645,"INCLINATION":97.8787,"RA_OF_ASC_NODE":133.0999,"ARG_OF_PERICENTER":46.1755,"MEAN_ANOMALY":314.0017,"EPHEMERIS_TYPE":0,"CLASSIFICATION_TYPE":"U","NORAD_CAT_ID":28220,"ELEMENT_SET_NO":999,"REV_AT_EPOCH":19479,"BSTAR":0.00057052,"MEAN_MOTION_DOT":0.00016921,"MEAN_MOTION_DDOT":0},{"OBJECT_NAME":"AURA","OBJECT_ID":"2004-026A","EPOCH":"2026-03-02T20:22:32.577888","MEAN_MOTION":14.61129129,"ECCENTRICITY":0.000102,"INCLINATION":98.3299,"RA_OF_ASC_NODE":17.5081,"ARG_OF_PERICENTER":77.7244,"MEAN_ANOMALY":282.407,"EPHEMERIS_TYPE":0,"CLASSIFICATION_TYPE":"U","NORAD_CAT_ID":28376,"ELEMENT_SET_NO":999,"REV_AT_EPOCH":15068,"BSTAR":0.00026327,"MEAN_MOTION_DOT":1.247e-5,"MEAN_MOTION_DDOT":0},{"OBJECT_NAME":"IRS-P5 (CARTOSAT-1)","OBJECT_ID":"2005-017A","EPOCH":"2026-03-02T15:12:42.741792","MEAN_MOTION":14.90735256,"ECCENTRICITY":0.0002526,"INCLINATION":97.5422,"RA_OF_ASC_NODE":89.4955,"ARG_OF_PERICENTER":77.2017,"MEAN_ANOMALY":282.9484,"EPHEMERIS_TYPE":0,"CLASSIFICATION_TYPE":"U","NORAD_CAT_ID":28649,"ELEMENT_SET_NO":999,"REV_AT_EPOCH":12794,"BSTAR":0.00021518,"MEAN_MOTION_DOT":2.061e-5,"MEAN_MOTION_DDOT":0},{"OBJECT_NAME":"SINAH 1","OBJECT_ID":"2005-043D","EPOCH":"2026-03-02T18:48:26.876160","MEAN_MOTION":14.64063663,"ECCENTRICITY":0.0013371,"INCLINATION":98.2672,"RA_OF_ASC_NODE":195.5884,"ARG_OF_PERICENTER":247.5908,"MEAN_ANOMALY":112.3878,"EPHEMERIS_TYPE":0,"CLASSIFICATION_TYPE":"U","NORAD_CAT_ID":28893,"ELEMENT_SET_NO":999,"REV_AT_EPOCH":8495,"BSTAR":0.0001246,"MEAN_MOTION_DOT":6.05e-6,"MEAN_MOTION_DDOT":0},{"OBJECT_NAME":"RESURS-DK 1","OBJECT_ID":"2006-021A","EPOCH":"2026-03-02T17:23:23.163360","MEAN_MOTION":15.12688957,"ECCENTRICITY":0.0002475,"INCLINATION":69.9303,"RA_OF_ASC_NODE":255.0413,"ARG_OF_PERICENTER":165.5368,"MEAN_ANOMALY":194.5869,"EPHEMERIS_TYPE":0,"CLASSIFICATION_TYPE":"U","NORAD_CAT_ID":29228,"ELEMENT_SET_NO":999,"REV_AT_EPOCH":8647,"BSTAR":0.00018935,"MEAN_MOTION_DOT":3.215e-5,"MEAN_MOTION_DDOT":0},{"OBJECT_NAME":"ARIRANG-2 (KOMPSAT-2)","OBJECT_ID":"2006-031A","EPOCH":"2026-03-02T20:42:50.632128","MEAN_MOTION":14.64582629,"ECCENTRICITY":0.0015597,"INCLINATION":97.8294,"RA_OF_ASC_NODE":251.446,"ARG_OF_PERICENTER":53.9245,"MEAN_ANOMALY":58.2422,"EPHEMERIS_TYPE":0,"CLASSIFICATION_TYPE":"U","NORAD_CAT_ID":29268,"ELEMENT_SET_NO":999,"REV_AT_EPOCH":4591,"BSTAR":0.00016689,"MEAN_MOTION_DOT":8.42e-6,"MEAN_MOTION_DDOT":0},{"OBJECT_NAME":"LAPAN-TUBSAT","OBJECT_ID":"2007-001A","EPOCH":"2026-03-02T20:32:50.819136","MEAN_MOTION":14.85815441,"ECCENTRICITY":0.0012309,"INCLINATION":98.1321,"RA_OF_ASC_NODE":58.7048,"ARG_OF_PERICENTER":165.7175,"MEAN_ANOMALY":194.439,"EPHEMERIS_TYPE":0,"CLASSIFICATION_TYPE":"U","NORAD_CAT_ID":29709,"ELEMENT_SET_NO":999,"REV_AT_EPOCH":3536,"BSTAR":4.6543e-5,"MEAN_MOTION_DOT":3.48e-6,"MEAN_MOTION_DDOT":0},{"OBJECT_NAME":"HAIYANG-1B","OBJECT_ID":"2007-010A","EPOCH":"2026-03-02T14:03:10.399392","MEAN_MOTION":14.3099671,"ECCENTRICITY":0.0013955,"INCLINATION":98.3418,"RA_OF_ASC_NODE":47.6107,"ARG_OF_PERICENTER":152.7731,"MEAN_ANOMALY":207.4187,"EPHEMERIS_TYPE":0,"CLASSIFICATION_TYPE":"U","NORAD_CAT_ID":31113,"ELEMENT_SET_NO":999,"REV_AT_EPOCH":98538,"BSTAR":6.6431e-5,"MEAN_MOTION_DOT":1.33e-6,"MEAN_MOTION_DDOT":0},{"OBJECT_NAME":"COSMO-SKYMED 1","OBJECT_ID":"2007-023A","EPOCH":"2026-03-02T20:15:53.002944","MEAN_MOTION":14.96469537,"ECCENTRICITY":8.35e-5,"INCLINATION":97.8863,"RA_OF_ASC_NODE":252.8222,"ARG_OF_PERICENTER":85.9902,"MEAN_ANOMALY":274.1414,"EPHEMERIS_TYPE":0,"CLASSIFICATION_TYPE":"U","NORAD_CAT_ID":31598,"ELEMENT_SET_NO":999,"REV_AT_EPOCH":1388,"BSTAR":0.00034689,"MEAN_MOTION_DOT":3.878e-5,"MEAN_MOTION_DDOT":0}]
